NINGXIA-1 5             
1 44783U 19076E   26117.31822214 -.00000047  00000+0  53494-4 0  9999
2 44783  45.0064  46.5327 0011886 267.5352  92.4122 14.02016208330637
KL-ALPHA A              
1 44785U 19077A   26117.57527160  .00000009  00000+0 -49220-5 0  9993
2 44785  88.9241 228.0955 0009091 252.7821 107.2338 13.56037113318870
CARTOSAT-3              
1 44804U 19081A   26117.50813545  .00006334  00000+0  30281-3 0  9999
2 44804  97.4347 180.1791 0011109 334.2518  25.8162 15.19299635355772
JILIN-1 GAOFEN 2B       
1 44836U 19086A   26117.47066274  .00007323  00000+0  34094-3 0  9999
2 44836  97.4904 189.7980 0015608 133.6260 226.6273 15.20111430352784
ANGELS                  
1 44876U 19092D   26117.23870772  .05143028  25081-5  90665-3 0  9996
2 44876  97.3890 337.0268 0007534 255.1244 104.9217 16.32734884354369
TIANQIN 1 (CAS-6)       
1 44879U 19093A   26117.49965451  .00004807  00000+0  44238-3 0  9996
2 44879  97.7794 201.7180 0010534 216.5747 143.4755 14.95180113344475
ETRSS-1                 
1 44880U 19093B   26117.52039485  .00005700  00000+0  51826-3 0  9995
2 44880  97.7820 202.1550 0010394 215.0772 144.9765 14.95576491344485
TIANYAN 01              
1 44881U 19093C   26117.49143193  .00001308  00000+0  15402-3 0  9994
2 44881  97.7545 190.9577 0012098 252.4183 107.5711 14.86435500343881
TIANYAN 02              
1 44882U 19093D   26117.51947997  .00008173  00000+0  58553-3 0  9993
2 44882  97.7914 211.8586 0014028 187.6315 172.4700 15.04576311344995
CBERS 4A                
1 44883U 19093E   26117.50598321  .00001350  00000+0  17813-3 0  9990
2 44883  97.7522 186.3676 0002296  30.4091 329.7255 14.81621404343570
WEILAI 1R               
1 44884U 19093F   26117.50369689  .00005292  00000+0  42735-3 0  9994
2 44884  97.7832 207.3432 0013570 198.7996 161.2727 15.00198559344822
FLORIPASAT-1            
1 44885U 19093G   26117.51510788  .00007193  00000+0  53382-3 0  9996
2 44885  97.7901 211.4054 0010225 233.8830 126.1449 15.03327002345033
SHUNTIAN                
1 44886U 19093H   26117.47515587  .00003178  00000+0  29641-3 0  9994
2 44886  97.8000 205.9094 0010484 228.2990 131.7334 14.94903774344601
2019-093L               
1 44889U 19093L   26117.49970664  .00004321  00000+0  40757-3 0  9992
2 44889  97.7555 196.3683 0011124 212.7934 147.2597 14.94253198344233
ELEKTRO-L 3             
1 44903U 19095A   26117.07594709 -.00000106  00000+0  00000+0 0  9998
2 44903   0.1267  75.8393 0001080 297.9664 304.5436  1.00271321 23192
GONETS-M 14             
1 44905U 19096A   26117.49524186  .00000029  00000+0  13934-3 0  9996
2 44905  82.5192 116.0704 0012026 264.1525  95.8184 12.42868745287386
GONETS-M 15             
1 44906U 19096B   26117.52470419 -.00000103  00000+0 -81736-3 0  9990
2 44906  82.5212 116.5055 0014032 288.9012  71.0546 12.42869195287353
