[{"OBJECT_NAME":"NINGXIA-1 5","OBJECT_ID":"2019-076E","EPOCH":"2026-04-27T07:38:14.392896","MEAN_MOTION":14.02016208,"ECCENTRICITY":0.0011886,"INCLINATION":45.0064,"RA_OF_ASC_NODE":46.5327,"ARG_OF_PERICENTER":267.5352,"MEAN_ANOMALY":92.4122,"EPHEMERIS_TYPE":0,"CLASSIFICATION_TYPE":"U","NORAD_CAT_ID":44783,"ELEMENT_SET_NO":999,"REV_AT_EPOCH":33063,"BSTAR":5.3494e-5,"MEAN_MOTION_DOT":-4.7e-7,"MEAN_MOTION_DDOT":0},{"OBJECT_NAME":"KL-ALPHA A","OBJECT_ID":"2019-077A","EPOCH":"2026-04-27T13:48:23.466240","MEAN_MOTION":13.56037113,"ECCENTRICITY":0.0009091,"INCLINATION":88.9241,"RA_OF_ASC_NODE":228.0955,"ARG_OF_PERICENTER":252.7821,"MEAN_ANOMALY":107.2338,"EPHEMERIS_TYPE":0,"CLASSIFICATION_TYPE":"U","NORAD_CAT_ID":44785,"ELEMENT_SET_NO":999,"REV_AT_EPOCH":31887,"BSTAR":-4.922e-6,"MEAN_MOTION_DOT":9.0e-8,"MEAN_MOTION_DDOT":0},{"OBJECT_NAME":"CARTOSAT-3","OBJECT_ID":"2019-081A","EPOCH":"2026-04-27T12:11:42.902880","MEAN_MOTION":15.19299635,"ECCENTRICITY":0.0011109,"INCLINATION":97.4347,"RA_OF_ASC_NODE":180.1791,"ARG_OF_PERICENTER":334.2518,"MEAN_ANOMALY":25.8162,"EPHEMERIS_TYPE":0,"CLASSIFICATION_TYPE":"U","NORAD_CAT_ID":44804,"ELEMENT_SET_NO":999,"REV_AT_EPOCH":35577,"BSTAR":0.00030281,"MEAN_MOTION_DOT":6.334e-5,"MEAN_MOTION_DDOT":0},{"OBJECT_NAME":"JILIN-1 GAOFEN 2B","OBJECT_ID":"2019-086A","EPOCH":"2026-04-27T11:17:45.260736","MEAN_MOTION":15.2011143,"ECCENTRICITY":0.0015608,"INCLINATION":97.4904,"RA_OF_ASC_NODE":189.798,"ARG_OF_PERICENTER":133.626,"MEAN_ANOMALY":226.6273,"EPHEMERIS_TYPE":0,"CLASSIFICATION_TYPE":"U","NORAD_CAT_ID":44836,"ELEMENT_SET_NO":999,"REV_AT_EPOCH":35278,"BSTAR":0.00034094,"MEAN_MOTION_DOT":7.323e-5,"MEAN_MOTION_DDOT":0},{"OBJECT_NAME":"ANGELS","OBJECT_ID":"2019-092D","EPOCH":"2026-04-27T05:43:44.347008","MEAN_MOTION":16.32734884,"ECCENTRICITY":0.0007534,"INCLINATION":97.389,"RA_OF_ASC_NODE":337.0268,"ARG_OF_PERICENTER":255.1244,"MEAN_ANOMALY":104.9217,"EPHEMERIS_TYPE":0,"CLASSIFICATION_TYPE":"U","NORAD_CAT_ID":44876,"ELEMENT_SET_NO":999,"REV_AT_EPOCH":35436,"BSTAR":0.00090665,"MEAN_MOTION_DOT":0.05143028,"MEAN_MOTION_DDOT":2.5081e-6},{"OBJECT_NAME":"TIANQIN 1 (CAS-6)","OBJECT_ID":"2019-093A","EPOCH":"2026-04-27T11:59:30.149664","MEAN_MOTION":14.95180113,"ECCENTRICITY":0.0010534,"INCLINATION":97.7794,"RA_OF_ASC_NODE":201.718,"ARG_OF_PERICENTER":216.5747,"MEAN_ANOMALY":143.4755,"EPHEMERIS_TYPE":0,"CLASSIFICATION_TYPE":"U","NORAD_CAT_ID":44879,"ELEMENT_SET_NO":999,"REV_AT_EPOCH":34447,"BSTAR":0.00044238,"MEAN_MOTION_DOT":4.807e-5,"MEAN_MOTION_DDOT":0},{"OBJECT_NAME":"ETRSS-1","OBJECT_ID":"2019-093B","EPOCH":"2026-04-27T12:29:22.115040","MEAN_MOTION":14.95576491,"ECCENTRICITY":0.0010394,"INCLINATION":97.782,"RA_OF_ASC_NODE":202.155,"ARG_OF_PERICENTER":215.0772,"MEAN_ANOMALY":144.9765,"EPHEMERIS_TYPE":0,"CLASSIFICATION_TYPE":"U","NORAD_CAT_ID":44880,"ELEMENT_SET_NO":999,"REV_AT_EPOCH":34448,"BSTAR":0.00051826,"MEAN_MOTION_DOT":5.7e-5,"MEAN_MOTION_DDOT":0},{"OBJECT_NAME":"TIANYAN 01","OBJECT_ID":"2019-093C","EPOCH":"2026-04-27T11:47:39.718752","MEAN_MOTION":14.864355,"ECCENTRICITY":0.0012098,"INCLINATION":97.7545,"RA_OF_ASC_NODE":190.9577,"ARG_OF_PERICENTER":252.4183,"MEAN_ANOMALY":107.5711,"EPHEMERIS_TYPE":0,"CLASSIFICATION_TYPE":"U","NORAD_CAT_ID":44881,"ELEMENT_SET_NO":999,"REV_AT_EPOCH":34388,"BSTAR":0.00015402,"MEAN_MOTION_DOT":1.308e-5,"MEAN_MOTION_DDOT":0},{"OBJECT_NAME":"TIANYAN 02","OBJECT_ID":"2019-093D","EPOCH":"2026-04-27T12:28:03.069408","MEAN_MOTION":15.04576311,"ECCENTRICITY":0.0014028,"INCLINATION":97.7914,"RA_OF_ASC_NODE":211.8586,"ARG_OF_PERICENTER":187.6315,"MEAN_ANOMALY":172.47,"EPHEMERIS_TYPE":0,"CLASSIFICATION_TYPE":"U","NORAD_CAT_ID":44882,"ELEMENT_SET_NO":999,"REV_AT_EPOCH":34499,"BSTAR":0.00058553,"MEAN_MOTION_DOT":8.173e-5,"MEAN_MOTION_DDOT":0},{"OBJECT_NAME":"CBERS 4A","OBJECT_ID":"2019-093E","EPOCH":"2026-04-27T12:08:36.949344","MEAN_MOTION":14.81621404,"ECCENTRICITY":0.0002296,"INCLINATION":97.7522,"RA_OF_ASC_NODE":186.3676,"ARG_OF_PERICENTER":30.4091,"MEAN_ANOMALY":329.7255,"EPHEMERIS_TYPE":0,"CLASSIFICATION_TYPE":"U","NORAD_CAT_ID":44883,"ELEMENT_SET_NO":999,"REV_AT_EPOCH":34357,"BSTAR":0.00017813,"MEAN_MOTION_DOT":1.35e-5,"MEAN_MOTION_DDOT":0},{"OBJECT_NAME":"WEILAI 1R","OBJECT_ID":"2019-093F","EPOCH":"2026-04-27T12:05:19.411296","MEAN_MOTION":15.00198559,"ECCENTRICITY":0.001357,"INCLINATION":97.7832,"RA_OF_ASC_NODE":207.3432,"ARG_OF_PERICENTER":198.7996,"MEAN_ANOMALY":161.2727,"EPHEMERIS_TYPE":0,"CLASSIFICATION_TYPE":"U","NORAD_CAT_ID":44884,"ELEMENT_SET_NO":999,"REV_AT_EPOCH":34482,"BSTAR":0.00042735,"MEAN_MOTION_DOT":5.292e-5,"MEAN_MOTION_DDOT":0},{"OBJECT_NAME":"FLORIPASAT-1","OBJECT_ID":"2019-093G","EPOCH":"2026-04-27T12:21:45.320832","MEAN_MOTION":15.03327002,"ECCENTRICITY":0.0010225,"INCLINATION":97.7901,"RA_OF_ASC_NODE":211.4054,"ARG_OF_PERICENTER":233.883,"MEAN_ANOMALY":126.1449,"EPHEMERIS_TYPE":0,"CLASSIFICATION_TYPE":"U","NORAD_CAT_ID":44885,"ELEMENT_SET_NO":999,"REV_AT_EPOCH":34503,"BSTAR":0.00053382,"MEAN_MOTION_DOT":7.193e-5,"MEAN_MOTION_DDOT":0},{"OBJECT_NAME":"SHUNTIAN","OBJECT_ID":"2019-093H","EPOCH":"2026-04-27T11:24:13.467168","MEAN_MOTION":14.94903774,"ECCENTRICITY":0.0010484,"INCLINATION":97.8,"RA_OF_ASC_NODE":205.9094,"ARG_OF_PERICENTER":228.299,"MEAN_ANOMALY":131.7334,"EPHEMERIS_TYPE":0,"CLASSIFICATION_TYPE":"U","NORAD_CAT_ID":44886,"ELEMENT_SET_NO":999,"REV_AT_EPOCH":34460,"BSTAR":0.00029641,"MEAN_MOTION_DOT":3.178e-5,"MEAN_MOTION_DDOT":0},{"OBJECT_NAME":"2019-093L","OBJECT_ID":"2019-093L","EPOCH":"2026-04-27T11:59:34.653696","MEAN_MOTION":14.94253198,"ECCENTRICITY":0.0011124,"INCLINATION":97.7555,"RA_OF_ASC_NODE":196.3683,"ARG_OF_PERICENTER":212.7934,"MEAN_ANOMALY":147.2597,"EPHEMERIS_TYPE":0,"CLASSIFICATION_TYPE":"U","NORAD_CAT_ID":44889,"ELEMENT_SET_NO":999,"REV_AT_EPOCH":34423,"BSTAR":0.00040757,"MEAN_MOTION_DOT":4.321e-5,"MEAN_MOTION_DDOT":0},{"OBJECT_NAME":"ELEKTRO-L 3","OBJECT_ID":"2019-095A","EPOCH":"2026-04-27T01:49:21.828576","MEAN_MOTION":1.00271321,"ECCENTRICITY":0.00010808,"INCLINATION":0.1267,"RA_OF_ASC_NODE":75.8393,"ARG_OF_PERICENTER":297.9664,"MEAN_ANOMALY":304.5436,"EPHEMERIS_TYPE":0,"CLASSIFICATION_TYPE":"U","NORAD_CAT_ID":44903,"ELEMENT_SET_NO":999,"REV_AT_EPOCH":2319,"BSTAR":0,"MEAN_MOTION_DOT":-1.06e-6,"MEAN_MOTION_DDOT":0},{"OBJECT_NAME":"GONETS-M 14","OBJECT_ID":"2019-096A","EPOCH":"2026-04-27T11:53:08.896704","MEAN_MOTION":12.42868745,"ECCENTRICITY":0.0012026,"INCLINATION":82.5192,"RA_OF_ASC_NODE":116.0704,"ARG_OF_PERICENTER":264.1525,"MEAN_ANOMALY":95.8184,"EPHEMERIS_TYPE":0,"CLASSIFICATION_TYPE":"U","NORAD_CAT_ID":44905,"ELEMENT_SET_NO":999,"REV_AT_EPOCH":28738,"BSTAR":0.00013934,"MEAN_MOTION_DOT":2.9e-7,"MEAN_MOTION_DDOT":0},{"OBJECT_NAME":"GONETS-M 15","OBJECT_ID":"2019-096B","EPOCH":"2026-04-27T12:35:34.442016","MEAN_MOTION":12.42869195,"ECCENTRICITY":0.0014032,"INCLINATION":82.5212,"RA_OF_ASC_NODE":116.5055,"ARG_OF_PERICENTER":288.9012,"MEAN_ANOMALY":71.0546,"EPHEMERIS_TYPE":0,"CLASSIFICATION_TYPE":"U","NORAD_CAT_ID":44906,"ELEMENT_SET_NO":999,"REV_AT_EPOCH":28735,"BSTAR":-0.00081736,"MEAN_MOTION_DOT":-1.03e-6,"MEAN_MOTION_DDOT":0}]
